{"type": "FeatureCollection", "features": [ {"type": "Feature", "properties": {"norad_id": 66935, "name": "STARLINK-36127", "group": "last-30-days", "lat": -5.332202317922941, "lon": -136.52575555864064, "alt_km": 296.11931967817964, "timestamp": "2025-12-14T22:38:39.519719+00:00", "meta": {"OBJECT_NAME": "STARLINK-36127", "OBJECT_ID": "2025-286L", "EPOCH": "2025-12-14T06:00:02.999808", "MEAN_MOTION": 15.94564907, "ECCENTRICITY": 9.11e-05, "INCLINATION": 53.1575, "RA_OF_ASC_NODE": 43.004, "ARG_OF_PERICENTER": 80.5967, "MEAN_ANOMALY": 84.9399, "EPHEMERIS_TYPE": 0, "CLASSIFICATION_TYPE": "U", "NORAD_CAT_ID": 66935, "ELEMENT_SET_NO": 999, "REV_AT_EPOCH": 223, "BSTAR": -0.003359361, "MEAN_MOTION_DOT": -0.01304084, "MEAN_MOTION_DDOT": 0.00050832445}, "tle": {"line1": "1 66935U 25286L   25348.25003472 -.01304084  50832-3 -33594-2 0  9996", "line2": "2 66935  53.1575  43.0040 0000911  80.5967  84.9399 15.94564907  2233"}}, "geometry": {"type": "Point", "coordinates": [-136.52575555864064, -5.332202317922941]}}, {"type": "Feature", "properties": {"norad_id": 66936, "name": "STARLINK-36160", "group": "last-30-days", "lat": -6.662621835267831, "lon": -135.51721688848116, "alt_km": 296.0802275669221, "timestamp": "2025-12-14T22:38:39.519732+00:00", "meta": {"OBJECT_NAME": "STARLINK-36160", "OBJECT_ID": "2025-286M", "EPOCH": "2025-12-14T06:00:02.999808", "MEAN_MOTION": 15.94638452, "ECCENTRICITY": 9.033e-05, "INCLINATION": 53.1575, "RA_OF_ASC_NODE": 43.0011, "ARG_OF_PERICENTER": 85.1106, "MEAN_ANOMALY": 81.93, "EPHEMERIS_TYPE": 0, "CLASSIFICATION_TYPE": "U", "NORAD_CAT_ID": 66936, "ELEMENT_SET_NO": 999, "REV_AT_EPOCH": 223, "BSTAR": -0.0033772167, "MEAN_MOTION_DOT": -0.01316038, "MEAN_MOTION_DDOT": 0.00051722748}, "tle": {"line1": "1 66936U 25286M   25348.25003472 -.01316038  51723-3 -33772-2 0  9997", "line2": "2 66936  53.1575  43.0011 0000903  85.1106  81.9300 15.94638452  2235"}}, "geometry": {"type": "Point", "coordinates": [-135.51721688848116, -6.662621835267831]}}, {"type": "Feature", "properties": {"norad_id": 66937, "name": "STARLINK-36165", "group": "last-30-days", "lat": -8.02643576621733, "lon": -134.47651544558485, "alt_km": 296.12186207789, "timestamp": "2025-12-14T22:38:39.519744+00:00", "meta": {"OBJECT_NAME": "STARLINK-36165", "OBJECT_ID": "2025-286N", "EPOCH": "2025-12-14T06:00:02.999808", "MEAN_MOTION": 15.9470609, "ECCENTRICITY": 0.00010066, "INCLINATION": 53.1574, "RA_OF_ASC_NODE": 42.9976, "ARG_OF_PERICENTER": 71.9434, "MEAN_ANOMALY": 96.6363, "EPHEMERIS_TYPE": 0, "CLASSIFICATION_TYPE": "U", "NORAD_CAT_ID": 66937, "ELEMENT_SET_NO": 999, "REV_AT_EPOCH": 223, "BSTAR": -0.003359108, "MEAN_MOTION_DOT": -0.01313772, "MEAN_MOTION_DDOT": 0.00051595679}, "tle": {"line1": "1 66937U 25286N   25348.25003472 -.01313772  51596-3 -33591-2 0  9997", "line2": "2 66937  53.1574  42.9976 0001006  71.9434  96.6363 15.94706090  2231"}}, "geometry": {"type": "Point", "coordinates": [-134.47651544558485, -8.02643576621733]}}, {"type": "Feature", "properties": {"norad_id": 66938, "name": "STARLINK-36155", "group": "last-30-days", "lat": -9.394051508163988, "lon": -133.4236599983012, "alt_km": 296.050192580361, "timestamp": "2025-12-14T22:38:39.519755+00:00", "meta": {"OBJECT_NAME": "STARLINK-36155", "OBJECT_ID": "2025-286P", "EPOCH": "2025-12-14T06:00:02.999808", "MEAN_MOTION": 15.94777748, "ECCENTRICITY": 8.863e-05, "INCLINATION": 53.1573, "RA_OF_ASC_NODE": 42.9942, "ARG_OF_PERICENTER": 84.8988, "MEAN_ANOMALY": 85.2331, "EPHEMERIS_TYPE": 0, "CLASSIFICATION_TYPE": "U", "NORAD_CAT_ID": 66938, "ELEMENT_SET_NO": 999, "REV_AT_EPOCH": 223, "BSTAR": -0.0033603427, "MEAN_MOTION_DOT": -0.01319229, "MEAN_MOTION_DDOT": 0.00052024237}, "tle": {"line1": "1 66938U 25286P   25348.25003472 -.01319229  52024-3 -33603-2 0  9992", "line2": "2 66938  53.1573  42.9942 0000886  84.8988  85.2331 15.94777748  2233"}}, "geometry": {"type": "Point", "coordinates": [-133.4236599983012, -9.394051508163988]}}, {"type": "Feature", "properties": {"norad_id": 66939, "name": "STARLINK-36154", "group": "last-30-days", "lat": -12.353634635849447, "lon": -131.1051429725307, "alt_km": 296.1024716065185, "timestamp": "2025-12-14T22:38:39.519767+00:00", "meta": {"OBJECT_NAME": "STARLINK-36154", "OBJECT_ID": "2025-286Q", "EPOCH": "2025-12-14T06:00:02.999808", "MEAN_MOTION": 15.94937147, "ECCENTRICITY": 9.293e-05, "INCLINATION": 53.1572, "RA_OF_ASC_NODE": 42.9874, "ARG_OF_PERICENTER": 78.6253, "MEAN_ANOMALY": 94.8766, "EPHEMERIS_TYPE": 0, "CLASSIFICATION_TYPE": "U", "NORAD_CAT_ID": 66939, "ELEMENT_SET_NO": 999, "REV_AT_EPOCH": 223, "BSTAR": -0.0033763069, "MEAN_MOTION_DOT": -0.01336675, "MEAN_MOTION_DDOT": 0.00053370484}, "tle": {"line1": "1 66939U 25286Q   25348.25003472 -.01336675  53370-3 -33763-2 0  9999", "line2": "2 66939  53.1572  42.9874 0000929  78.6253  94.8766 15.94937147  2230"}}, "geometry": {"type": "Point", "coordinates": [-131.1051429725307, -12.353634635849447]}}, {"type": "Feature", "properties": {"norad_id": 66940, "name": "STARLINK-36121", "group": "last-30-days", "lat": -13.653076141124396, "lon": -130.066624664821, "alt_km": 296.0266134590538, "timestamp": "2025-12-14T22:38:39.519777+00:00", "meta": {"OBJECT_NAME": "STARLINK-36121", "OBJECT_ID": "2025-286R", "EPOCH": "2025-12-14T06:00:02.999808", "MEAN_MOTION": 15.95001926, "ECCENTRICITY": 8.58e-05, "INCLINATION": 53.1571, "RA_OF_ASC_NODE": 42.9841, "ARG_OF_PERICENTER": 81.6562, "MEAN_ANOMALY": 93.3372, "EPHEMERIS_TYPE": 0, "CLASSIFICATION_TYPE": "U", "NORAD_CAT_ID": 66940, "ELEMENT_SET_NO": 999, "REV_AT_EPOCH": 223, "BSTAR": -0.0033693769, "MEAN_MOTION_DOT": -0.01338551, "MEAN_MOTION_DDOT": 0.00053542062}, "tle": {"line1": "1 66940U 25286R   25348.25003472 -.01338551  53542-3 -33694-2 0  9990", "line2": "2 66940  53.1571  42.9841 0000858  81.6562  93.3372 15.95001926  2238"}}, "geometry": {"type": "Point", "coordinates": [-130.066624664821, -13.653076141124396]}}, {"type": "Feature", "properties": {"norad_id": 66941, "name": "STARLINK-36088", "group": "last-30-days", "lat": -10.981859450780979, "lon": -132.1875003866262, "alt_km": 296.1258896901718, "timestamp": "2025-12-14T22:38:39.519787+00:00", "meta": {"OBJECT_NAME": "STARLINK-36088", "OBJECT_ID": "2025-286S", "EPOCH": "2025-12-14T06:00:02.999808", "MEAN_MOTION": 15.94860474, "ECCENTRICITY": 9.808e-05, "INCLINATION": 53.1572, "RA_OF_ASC_NODE": 42.9903, "ARG_OF_PERICENTER": 78.8672, "MEAN_ANOMALY": 93.0717, "EPHEMERIS_TYPE": 0, "CLASSIFICATION_TYPE": "U", "NORAD_CAT_ID": 66941, "ELEMENT_SET_NO": 999, "REV_AT_EPOCH": 223, "BSTAR": -0.0033624117, "MEAN_MOTION_DOT": -0.01325844, "MEAN_MOTION_DDOT": 0.0005254425}, "tle": {"line1": "1 66941U 25286S   25348.25003472 -.01325844  52544-3 -33624-2 0  9996", "line2": "2 66941  53.1572  42.9903 0000980  78.8672  93.0717 15.94860474  2235"}}, "geometry": {"type": "Point", "coordinates": [-132.1875003866262, -10.981859450780979]}}, {"type": "Feature", "properties": {"norad_id": 66942, "name": "STARLINK-36100", "group": "last-30-days", "lat": -15.019394900096465, "lon": -128.95805683156965, "alt_km": 295.93965291037694, "timestamp": "2025-12-14T22:38:39.519796+00:00", "meta": {"OBJECT_NAME": "STARLINK-36100", "OBJECT_ID": "2025-286T", "EPOCH": "2025-12-14T06:00:02.999808", "MEAN_MOTION": 15.95073518, "ECCENTRICITY": 7.847e-05, "INCLINATION": 53.157, "RA_OF_ASC_NODE": 42.9809, "ARG_OF_PERICENTER": 83.2432, "MEAN_ANOMALY": 93.3113, "EPHEMERIS_TYPE": 0, "CLASSIFICATION_TYPE": "U", "NORAD_CAT_ID": 66942, "ELEMENT_SET_NO": 999, "REV_AT_EPOCH": 216, "BSTAR": -0.0033541635, "MEAN_MOTION_DOT": -0.0133765, "MEAN_MOTION_DDOT": 0.00053515}, "tle": {"line1": "1 66942U 25286T   25348.25003472 -.01337650  53515-3 -33542-2 0  9993", "line2": "2 66942  53.1570  42.9809 0000784  83.2432  93.3113 15.95073518  2166"}}, "geometry": {"type": "Point", "coordinates": [-128.95805683156965, -15.019394900096465]}}, {"type": "Feature", "properties": {"norad_id": 66943, "name": "STARLINK-36109", "group": "last-30-days", "lat": -16.627966384308223, "lon": -127.62878499751963, "alt_km": 295.9210333723295, "timestamp": "2025-12-14T22:38:39.519806+00:00", "meta": {"OBJECT_NAME": "STARLINK-36109", "OBJECT_ID": "2025-286U", "EPOCH": "2025-12-14T06:00:02.999808", "MEAN_MOTION": 15.95160848, "ECCENTRICITY": 8.903e-05, "INCLINATION": 53.1569, "RA_OF_ASC_NODE": 42.9769, "ARG_OF_PERICENTER": 85.0658, "MEAN_ANOMALY": 93.3462, "EPHEMERIS_TYPE": 0, "CLASSIFICATION_TYPE": "U", "NORAD_CAT_ID": 66943, "ELEMENT_SET_NO": 999, "REV_AT_EPOCH": 216, "BSTAR": -0.0033665728, "MEAN_MOTION_DOT": -0.01348799, "MEAN_MOTION_DDOT": 0.00054379065}, "tle": {"line1": "1 66943U 25286U   25348.25003472 -.01348799  54379-3 -33666-2 0  9996", "line2": "2 66943  53.1569  42.9769 0000890  85.0658  93.3462 15.95160848  2168"}}, "geometry": {"type": "Point", "coordinates": [-127.62878499751963, -16.627966384308223]}}, {"type": "Feature", "properties": {"norad_id": 66944, "name": "STARLINK-36112", "group": "last-30-days", "lat": -17.90754012785846, "lon": -126.55029290067256, "alt_km": 296.0137370915054, "timestamp": "2025-12-14T22:38:39.519816+00:00", "meta": {"OBJECT_NAME": "STARLINK-36112", "OBJECT_ID": "2025-286V", "EPOCH": "2025-12-14T06:00:02.999808", "MEAN_MOTION": 15.95230011, "ECCENTRICITY": 9.9e-05, "INCLINATION": 53.1569, "RA_OF_ASC_NODE": 42.9737, "ARG_OF_PERICENTER": 73.3728, "MEAN_ANOMALY": 106.5115, "EPHEMERIS_TYPE": 0, "CLASSIFICATION_TYPE": "U", "NORAD_CAT_ID": 66944, "ELEMENT_SET_NO": 999, "REV_AT_EPOCH": 223, "BSTAR": -0.0033528953, "MEAN_MOTION_DOT": -0.01348353, "MEAN_MOTION_DDOT": 0.00054384229}, "tle": {"line1": "1 66944U 25286V   25348.25003472 -.01348353  54384-3 -33529-2 0  9997", "line2": "2 66944  53.1569  42.9737 0000990  73.3728 106.5115 15.95230011  2233"}}, "geometry": {"type": "Point", "coordinates": [-126.55029290067256, -17.90754012785846]}}]}